
# Worst residual: 8.13 km
# MJD 59186.000000 (2020 Dec  3  0:00)
A10v8km = ZTF0Kci
1 88864U 00000ABJ 20338.49919926  .00000000  00000-0  00000-0 0 11486
2 88864 024.8873 196.0552 7694013 113.0626 339.3797 01.69969105    02

# Worst residual: 8.38 km
# MJD 59187.000000 (2020 Dec  4  0:00)
A10v8km = ZTF0Kci
1 88864U 00000ABJ 20339.49919926  .00000000  00000-0  00000-0 0 11487
2 88864 024.8919 195.7910 7693848 113.5034 231.2476 01.69963484    08

# Worst residual: 7.39 km
# MJD 59188.000000 (2020 Dec  5  0:00)
A10v8km = ZTF0Kci
1 88864U 00000ABJ 20340.49919926  .00000000  00000-0  00000-0 0 11489
2 88864 024.8953 195.5172 7693597 113.9516 123.1108 01.69962102    01

# Worst residual: 8.30 km
# MJD 59189.000000 (2020 Dec  6  0:00)
A10v8km = ZTF0Kci
1 88864U 00000ABJ 20341.49919926  .00000000  00000-0  00000-0 0 11480
2 88864 024.9015 195.2312 7693679 114.4147 014.9747 01.69966443    09

# Worst residual: 9.23 km
# MJD 59190.000000 (2020 Dec  7  0:00)
A10v8km = ZTF0Kci
1 88864U 00000ABJ 20342.49919926  .00000000  00000-0  00000-0 0 11481
2 88864 024.9092 194.9465 7693224 114.8757 266.8408 01.69964430    02

# Worst residual: 8.35 km
# MJD 59191.000000 (2020 Dec  8  0:00)
A10v8km = ZTF0Kci
1 88864U 00000ABJ 20343.49919926  .00000000  00000-0  00000-0 0 11482
2 88864 024.9167 194.6743 7692849 115.3194 158.7093 01.69963941    09

# Worst residual: 9.50 km
# MJD 59192.000000 (2020 Dec  9  0:00)
A10v8km = ZTF0Kci
1 88864U 00000ABJ 20344.49919926  .00000000  00000-0  00000-0 0 11483
2 88864 024.9178 194.4087 7693057 115.7623 050.5771 01.69967235    05

# Worst residual: 9.59 km
# MJD 59193.000000 (2020 Dec 10  0:00)
A10v8km = ZTF0Kci
1 88864U 00000ABJ 20345.49919926  .00000000  00000-0  00000-0 0 11484
2 88864 024.9255 194.1216 7692364 116.2258 302.4344 01.69960807    05

# Worst residual: 8.51 km
# MJD 59194.000000 (2020 Dec 11  0:00)
A10v8km = ZTF0Kci
1 88864U 00000ABJ 20346.49919926  .00000000  00000-0  00000-0 0 11485
2 88864 024.9325 193.8485 7692124 116.6718 194.2985 01.69964554    07

# Worst residual: 7.94 km
# MJD 59195.000000 (2020 Dec 12  0:00)
A10v8km = ZTF0Kci
1 88864U 00000ABJ 20347.49919926  .00000000  00000-0  00000-0 0 11486
2 88864 024.9347 193.5806 7692179 117.1144 086.1691 01.69966385    01

# Worst residual: 8.01 km
# MJD 59196.000000 (2020 Dec 13  0:00)
A10v8km = ZTF0Kci
1 88864U 00000ABJ 20348.49919926  .00000000  00000-0  00000-0 0 11487
2 88864 024.9440 193.2923 7692290 117.5778 338.0330 01.69968867    09

# Worst residual: 8.85 km
# MJD 59197.000000 (2020 Dec 14  0:00)
A10v8km = ZTF0Kci
1 88864U 00000ABJ 20349.49919926  .00000000  00000-0  00000-0 0 11488
2 88864 024.9485 193.0256 7692008 118.0211 229.8979 01.69962175    02

# Worst residual: 7.54 km
# MJD 59198.000000 (2020 Dec 15  0:00)
A10v8km = ZTF0Kci
1 88864U 00000ABJ 20350.49919926  .00000000  00000-0  00000-0 0 11480
2 88864 024.9533 192.7493 7691828 118.4719 121.7552 01.69961098    01

# Worst residual: 8.09 km
# MJD 59199.000000 (2020 Dec 16  0:00)
A10v8km = ZTF0Kci
1 88864U 00000ABJ 20351.49919926  .00000000  00000-0  00000-0 0 11481
2 88864 024.9602 192.4699 7692245 118.9302 013.6138 01.69967227    09

# Worst residual: 8.63 km
# MJD 59200.000000 (2020 Dec 17  0:00)
A10v8km = ZTF0Kci
1 88864U 00000ABJ 20352.49919926  .00000000  00000-0  00000-0 0 11482
2 88864 024.9670 192.1958 7691568 119.3831 265.4756 01.69964040    01

# Worst residual: 7.83 km
# MJD 59201.000000 (2020 Dec 18  0:00)
A10v8km = ZTF0Kci
1 88864U 00000ABJ 20353.49919926  .00000000  00000-0  00000-0 0 11483
2 88864 024.9733 191.9264 7691513 119.8260 157.3406 01.69964068    00

# Worst residual: 9.07 km
# MJD 59202.000000 (2020 Dec 19  0:00)
A10v8km = ZTF0Kci
1 88864U 00000ABJ 20354.49919926  .00000000  00000-0  00000-0 0 11484
2 88864 024.9738 191.6604 7691766 120.2708 049.2067 01.69966037    03

# Worst residual: 9.30 km
# MJD 59203.000000 (2020 Dec 20  0:00)
A10v8km = ZTF0Kci
1 88864U 00000ABJ 20355.49919926  .00000000  00000-0  00000-0 0 11485
2 88864 024.9805 191.3846 7691194 120.7266 301.0626 01.69960816    01

# Worst residual: 8.59 km
# MJD 59204.000000 (2020 Dec 21  0:00)
A10v8km = ZTF0Kci
1 88864U 00000ABJ 20356.49919926  .00000000  00000-0  00000-0 0 11486
2 88864 024.9872 191.1164 7691216 121.1703 192.9240 01.69964358    06

# Worst residual: 7.91 km
# MJD 59205.000000 (2020 Dec 22  0:00)
A10v8km = ZTF0Kci
1 88864U 00000ABJ 20357.49919926  .00000000  00000-0  00000-0 0 11487
2 88864 024.9913 190.8461 7691111 121.6171 084.7914 01.69968144    09

# Worst residual: 7.99 km
# MJD 59206.000000 (2020 Dec 23  0:00)
A10v8km = ZTF0Kci
1 88864U 00000ABJ 20358.49919926  .00000000  00000-0  00000-0 0 11488
2 88864 024.9983 190.5658 7691011 122.0736 336.6570 01.69968567    08

# Worst residual: 8.58 km
# MJD 59207.000000 (2020 Dec 24  0:00)
A10v8km = ZTF0Kci
1 88864U 00000ABJ 20359.49919926  .00000000  00000-0  00000-0 0 11489
2 88864 025.0039 190.3046 7690724 122.5137 228.5216 01.69964491    09

# Worst residual: 8.03 km
# MJD 59208.000000 (2020 Dec 25  0:00)
A10v8km = ZTF0Kci
1 88864U 00000ABJ 20360.49919926  .00000000  00000-0  00000-0 0 11481
2 88864 025.0056 190.0422 7690347 122.9506 120.3839 01.69961576    09

# Worst residual: 8.24 km
# MJD 59209.000000 (2020 Dec 26  0:00)
A10v8km = ZTF0Kci
1 88864U 00000ABJ 20361.49919926  .00000000  00000-0  00000-0 0 11482
2 88864 025.0137 189.7620 7690366 123.4089 012.2441 01.69969544    08

# Worst residual: 8.94 km
# MJD 59210.000000 (2020 Dec 27  0:00)
A10v8km = ZTF0Kci
1 88864U 00000ABJ 20362.49919926  .00000000  00000-0  00000-0 0 11483
2 88864 025.0201 189.4917 7689835 123.8570 264.1102 01.69965190    09

# Worst residual: 8.04 km
# MJD 59211.000000 (2020 Dec 28  0:00)
A10v8km = ZTF0Kci
1 88864U 00000ABJ 20363.49919926  .00000000  00000-0  00000-0 0 11484
2 88864 025.0270 189.2251 7689547 124.2966 155.9799 01.69964305    04

# Worst residual: 8.91 km
# MJD 59212.000000 (2020 Dec 29  0:00)
A10v8km = ZTF0Kci
1 88864U 00000ABJ 20364.49919926  .00000000  00000-0  00000-0 0 11485
2 88864 025.0294 188.9589 7689694 124.7393 047.8473 01.69968051    02

# Worst residual: 9.02 km
# MJD 59213.000000 (2020 Dec 30  0:00)
A10v8km = ZTF0Kci
1 88864U 00000ABJ 20365.49919926  .00000000  00000-0  00000-0 0 11486
2 88864 025.0364 188.6800 7689085 125.1984 299.7038 01.69961321    06

# Worst residual: 8.56 km
# MJD 59214.000000 (2020 Dec 31  0:00)
A10v8km = ZTF0Kci
1 88864U 00000ABJ 20366.49919926  .00000000  00000-0  00000-0 0 11487
2 88864 025.0436 188.4101 7689037 125.6437 191.5640 01.69964836    05

# Worst residual: 7.64 km
# MJD 59215.000000 (2021 Jan  1  0:00)
A10v8km = ZTF0Kci
1 88864U 00000ABJ 21001.49919926  .00000000  00000-0  00000-0 0 11484
2 88864 025.0492 188.1388 7688793 126.0923 083.4268 01.69967678    06

# Worst residual: 7.84 km
# MJD 59216.000000 (2021 Jan  2  0:00)
A10v8km = ZTF0Kci
1 88864U 00000ABJ 21002.49919926  .00000000  00000-0  00000-0 0 11485
2 88864 025.0599 187.8504 7688422 126.5584 335.2882 01.69967652    09
